{
  "norad_id": 56515,
  "name": "STARLINK-5348",
  "history": [
    {
      "epoch": "2026-03-28T20:00:01.999872Z",
      "apogee_km": 487.2322294125197,
      "perigee_km": 486.17984897461156,
      "latitude_deg": -0.5357035182680611,
      "longitude_deg": 158.5743466539253,
      "height_km": 486.62795744668136,
      "semi_major_axis_km": 6864.843039193565,
      "eccentricity": 7.665e-05,
      "inclination_deg": 43.0008,
      "raan_deg": 104.2595,
      "arg_perigee_deg": 278.9227,
      "mean_anomaly_deg": 261.7817,
      "mean_motion_rev_day": 15.26359536
    },
    {
      "epoch": "2026-03-29T04:00:01.999584Z",
      "apogee_km": 486.67586556137303,
      "perigee_km": 485.2769592479244,
      "latitude_deg": -22.802368862010002,
      "longitude_deg": 62.44041226390562,
      "height_km": 490.97814416551313,
      "semi_major_axis_km": 6864.113412404648,
      "eccentricity": 0.0001019,
      "inclination_deg": 43.0002,
      "raan_deg": 102.388,
      "arg_perigee_deg": 272.3135,
      "mean_anomaly_deg": 302.0579,
      "mean_motion_rev_day": 15.26602911
    }
  ]
}